TDRS 3                  
1 19548U 88091B   26192.33485200 -.00000298  00000+0  00000+0 0  9996
2 19548  12.5837 340.8381 0036979 355.5121  24.3452  1.00263924125632
FLTSATCOM 8 (USA 46)    
1 20253U 89077A   26192.48044200 -.00000368  00000+0  00000+0 0  9991
2 20253  12.4146 351.0152 0003547  68.5638 168.3442  1.00264925260807
SKYNET 4C               
1 20776U 90079A   26192.16508020 -.00000046  00000+0  00000+0 0  9998
2 20776  13.3306 349.6597 0002900 136.9857  77.4943  0.98576970   277
TDRS 5                  
1 21639U 91054B   26192.25202169  .00000083  00000+0  00000+0 0  9996
2 21639  14.0681 353.5965 0007396 257.3171 321.2733  1.00271878127959
TDRS 6                  
1 22314U 93003B   26192.43062057 -.00000297  00000+0  00000+0 0  9991
2 22314  14.1831 356.8764 0008121 183.5598 217.7981  1.00281135122654
UFO 2 (USA 95)          
1 22787U 93056A   26191.64383346  .00000126  00000+0  00000+0 0  9992
2 22787  11.9053   3.4243 0002846   8.7196 176.8617  1.00268244118782
USA 99 (MILSTAR-1 1)    
1 22988U 94009A   26192.18970169  .00000004  00000+0  00000+0 0  9994
2 22988  17.6612  27.4545 0001644 195.3642   5.5895  0.98720350 33187
UFO 4 (USA 108)         
1 23467U 95003A   26192.31382295 -.00000021  00000+0  00000+0 0  9994
2 23467   9.6732  13.0252 0003146  94.4491 107.0422  1.00275673115193
TDRS 7                  
1 23613U 95035B   26192.44002447 -.00000241  00000+0  00000+0 0  9998
2 23613  13.3670 348.0209 0011612  85.3440 103.6214  1.00274880113493
USA 115 (MILSTAR-1 2)   
1 23712U 95060A   26192.47579968 -.00000205  00000+0  00000+0 0  9996
2 23712  14.0813   3.5611 0006131 123.8600 243.2260  1.00273129 33135
INMARSAT 3-F1           
1 23839U 96020A   26192.39145909  .00000032  00000+0  00000+0 0  9995
2 23839  10.6498  46.4086 0004350  83.9843 179.0671  0.99979500110494
INMARSAT 3-F2           
1 24307U 96053A   26192.51843933 -.00000362  00000+0  00000+0 0  9995
2 24307   9.9101  53.6857 0006427  51.1321 136.6928  0.99993520109162
INMARSAT 3-F3           
1 24674U 96070A   26192.28332821  .00000059  00000+0  00000+0 0  9996
2 24674  10.3688  49.4192 0003506  71.0481 288.6050  0.99993755108144
USA 134                 
1 25019U 97065A   26192.36123815 -.00000066  00000+0  00000+0 0  9994
2 25019  12.8118  21.5357 0002373 333.3727 311.9720  1.00272712 33197
INMARSAT 3-F5           
1 25153U 98006B   26192.48290638 -.00000294  00000+0  00000+0 0  9993
2 25153   9.7453  53.0131 0004319  60.1004 296.1314  1.00274432104135
ABS-6                   
1 25924U 99053A   26192.49246832 -.00000114  00000+0  00000+0 0  9991
2 25924   0.0499 270.3447 0003133 178.1996 177.1292  1.00269285 98081
UFO 10 (USA 146)        
1 25967U 99063A   26192.31086380 -.00000189  00000+0  00000+0 0  9992
2 25967   9.8574  27.0813 0001436 107.3672 243.7238  1.00273254 97587
ASIASTAR                
1 26107U 00016A   26192.51453932 -.00000337  00000+0  00000+0 0  9997
2 26107   9.1837  57.8892 0003696  64.3758  97.3992  1.00272928 96164
USA 149 (DSP 20)        
1 26356U 00024A   26192.22528366  .00000094  00000+0  00000+0 0  9993
2 26356  13.1879  11.6757 0001642 306.9361 246.8784  1.00280498 33154
TDRS 8                  
1 26388U 00034A   26192.54512389 -.00000201  00000+0  00000+0 0  9993
2 26388  12.7209  31.1120 0004210  33.8665 145.5601  1.00273056 95422
NSS-11                  
1 26554U 00059A   26192.51989154  .00000029  00000+0  00000+0 0  9997
2 26554   2.1866  81.0980 0003023  29.8164 181.6793  1.00275184 41537
USA 153                 
1 26575U 00065A   26192.48354484 -.00000329  00000+0  00000+0 0  9999
2 26575  11.6650  35.2144 0002089  58.6476 144.0491  1.00273623 33171
AMC-6                   
1 26580U 00067A   26192.47475235  .00000094  00000+0  00000+0 0  9992
2 26580   0.2114  83.5918 0003812  40.8671 200.7880  1.00271269 94135
USA 157 (MILSTAR-2 2)   
1 26715U 01009A   26192.27429861  .00000107  00000+0  00000+0 0  9996
2 26715  11.5683  19.6081 0040557 179.1778  39.0436  1.00272489 33186
INTELSAT 902 (IS-902)   
1 26900U 01039A   26192.48377306 -.00000284  00000+0  00000+0 0  9991
2 26900   6.1764  71.4854 0004425  35.9335 306.0222  1.00271111 90935
USA 164 (MILSTAR-2 3)   
1 27168U 02001A   26192.21219432  .00000096  00000+0  00000+0 0  9994
2 27168  11.2072  21.7543 0098490   8.9375 353.8050  1.00275642 33202
INTELSAT 904 (IS-904)   
1 27380U 02007A   26192.41610434 -.00000226  00000+0  00000+0 0  9991
2 27380   6.9777  68.8900 0005400  23.3585 315.4057  1.00271577 52006
DIRECTV 5 (TEMPO 1)     
1 27426U 02023A   26192.36973712 -.00000056  00000+0  00000+0 0  9996
2 27426   4.9367  75.0072 0003021  41.0129 196.2530  1.00271026 88366
INTELSAT 905 (IS-905)   
1 27438U 02027A   26192.50322435  .00000093  00000+0  00000+0 0  9999
2 27438   6.8121  69.5028 0003458  44.0353 219.8269  1.00270720 51601
GALAXY 3C (G-3C)        
1 27445U 02030A   26192.45530803 -.00000151  00000+0  00000+0 0  9991
2 27445   3.7934  77.6601 0001507  38.2023 242.5835  1.00270826 46733
INTELSAT 906 (IS-906)   
1 27513U 02041A   26192.22120770  .00000014  00000+0  00000+0 0  9999
2 27513   5.8616  72.6255 0003935  19.9437 340.3301  1.00272334 87265
